NORAD_CAT_ID,OBJECT_NAME,OBJECT_TYPE,EPOCH,MEAN_MOTION,ECCENTRICITY,INCLINATION,RA_OF_ASC_NODE,ARG_OF_PERICENTER,MEAN_ANOMALY,BSTAR,MEAN_MOTION_DOT,MEAN_MOTION_DDOT,TLE_LINE0,TLE_LINE1,TLE_LINE2,SEMIMAJOR_AXIS,PERIOD,APOGEE,PERIGEE,DECAYED
53827.0,STARLINK-4764,PAYLOAD,2022-09-23 16:00:00,15.87888254,0.0031848,53.2173,236.2235,55.4791,32.4217,-0.0043638999999999,-0.01255893,0.00044518,0 STARLINK-4764,1 53827U 22114K   22266.66667824 -.01255893  44518-3 -43639-2 0  9995,2 53827  53.2173 236.2235 0031848  55.4791  32.4217 15.87888254  1305,6686.340999999999,90.686,329.501,286.9120000000001,0.0
53827.0,STARLINK-4764,PAYLOAD,2022-09-24 06:00:00,15.86236883,0.0025277,53.2171,233.2778,58.4813,124.4899,-0.0041048,-0.01072278,0.000329,0 STARLINK-4764,1 53827U 22114K   22267.25001157 -.01072278  32900-3 -41048-2 0  9990,2 53827  53.2171 233.2778 0025277  58.4813 124.4899 15.86236883  1390,6690.981,90.781,329.759,295.933,0.0
53827.0,STARLINK-4764,PAYLOAD,2022-09-24 14:00:01,15.855185,0.0021471,53.2168,231.5959,58.3807,228.8491,-0.0052128,-0.01156173,0.0,0 STARLINK-4764,1 53827U 22114K   22267.58335648 -.01156173  00000-0 -52128-2 0  9992,2 53827  53.2168 231.5959 0021471  58.3807 228.8491 15.85518500  1443,6693.002,90.822,329.23800000000006,300.497,0.0
53827.0,STARLINK-4764,PAYLOAD,2022-09-24 22:00:00,15.84666217,0.0018008,53.2176,229.9168,56.5897,333.7948,-0.0055178,-0.01164006,0.0,0 STARLINK-4764,1 53827U 22114K   22267.91667824 -.01164006  00000-0 -55178-2 0  9995,2 53827  53.2176 229.9168 0018008  56.5897 333.7948 15.84666217  1302,6695.401999999999,90.871,329.324,305.21,0.0
53827.0,STARLINK-4764,PAYLOAD,2022-09-25 14:00:01,15.82959798,0.0010301,53.2174,226.5663,55.4633,178.2455,-0.0063226,-0.01230235,0.0,0 STARLINK-4764,1 53827U 22114K   22268.58334491 -.01230235  00000-0 -63226-2 0  9991,2 53827  53.2174 226.5663 0010301  55.4633 178.2455 15.82959798  1309,6700.2130000000025,90.969,328.98,315.176,0.0
53827.0,STARLINK-4764,PAYLOAD,2022-09-25 22:00:01,15.82081831,0.0007336,53.2175,224.8932,44.5597,289.3215,-0.0064991,-0.01211291,0.0,0 STARLINK-4764,1 53827U 22114K   22268.91668981 -.01211291  00000-0 -64991-2 0  9993,2 53827  53.2175 224.8932 0007336  44.5597 289.3215 15.82081831  1304,6702.691,91.019,329.473,319.639,0.0
53827.0,STARLINK-4764,PAYLOAD,2022-09-26 10:00:00,15.80788945,0.000249,53.217,222.3903,18.3492,283.6604,-0.0070068,-0.01222935,0.0,0 STARLINK-4764,1 53827U 22114K   22269.41667824 -.01222935  00000-0 -70068-2 0  9993,2 53827  53.2170 222.3903 0002490  18.3492 283.6604 15.80788945  1733,6706.345,91.094,329.88,326.54,0.0
53827.0,STARLINK-4764,PAYLOAD,2022-09-26 14:00:01,15.80345455,0.0001943,53.2172,221.555,355.2445,175.6464,-0.007033,-0.01204408,0.0,0 STARLINK-4764,1 53827U 22114K   22269.58334491 -.01204408  00000-0 -70330-2 0  9999,2 53827  53.2172 221.5550 0001943 355.2445 175.6464 15.80345455  1309,6707.6,91.119,330.76800000000014,328.162,0.0
53827.0,STARLINK-4764,PAYLOAD,2022-09-26 22:00:00,15.794871300000002,0.0004338,53.2177,219.8891,282.0613,345.8006,-0.0074339,-0.01223045,0.0,0 STARLINK-4764,1 53827U 22114K   22269.91667824 -.01223045  00000-0 -74339-2 0  9996,2 53827  53.2177 219.8891 0004338 282.0613 345.8006 15.79487130  1811,6710.03,91.169,334.806,328.9840000000001,0.0
53827.0,STARLINK-4764,PAYLOAD,2022-09-27 06:00:00,15.78622604,0.0001785,53.2174,218.2263,22.0487,341.7398,-0.0077376999999999,-0.01221812,0.0,0 STARLINK-4764,1 53827U 22114K   22270.25001157 -.01221812  00000-0 -77377-2 0  9991,2 53827  53.2174 218.2263 0001785  22.0487 341.7398 15.78622604  1868,6712.479,91.219,335.543,333.146,0.0
53827.0,STARLINK-4764,PAYLOAD,2022-09-27 14:00:01,15.77676258,0.0003856,53.2172,216.5631,283.2512,175.463,-0.0072823,-0.01115211,0.0,0 STARLINK-4764,1 53827U 22114K   22270.58334491 -.01115211  00000-0 -72823-2 0  9993,2 53827  53.2172 216.5631 0003856 283.2512 175.4630 15.77676258  1300,6715.163000000001,91.273,339.61800000000005,334.439,0.0
53827.0,STARLINK-4764,PAYLOAD,2022-09-27 22:00:01,15.76742147,0.0001072,53.2171,214.9022,50.3035,142.3575,-0.006987,-0.01033253,0.0,0 STARLINK-4764,1 53827U 22114K   22270.91668981 -.01033253  00000-0 -69870-2 0  9997,2 53827  53.2171 214.9022 0001072  50.3035 142.3575 15.76742147  1307,6717.815,91.328,340.4,338.96,0.0
53827.0,STARLINK-4764,PAYLOAD,2022-09-28 06:00:00,15.75999523,0.000128,53.2174,213.2486,49.8766,235.4537,-0.0084892,-0.01194353,0.0,0 STARLINK-4764,1 53827U 22114K   22271.25001157 -.01194353  00000-0 -84892-2 0  9991,2 53827  53.2174 213.2486 0001280  49.8766 235.4537 15.75999523  2024,6719.925,91.371,342.651,340.93,0.0
53827.0,STARLINK-4764,PAYLOAD,2022-09-28 14:00:01,15.74866862,0.0001610999999999,53.2173,211.5906,36.5735,340.6478,-0.0060597,-0.00829754,0.0,0 STARLINK-4764,1 53827U 22114K   22271.58334491 -.00829754  00000-0 -60597-2 0  9992,2 53827  53.2173 211.5906 0001611  36.5735 340.6478 15.74866862  1309,6723.147,91.436,346.095,343.92900000000014,0.0
53827.0,STARLINK-4764,PAYLOAD,2022-09-28 22:00:00,15.74156431,0.0001437,53.2178,209.9382,30.3648,77.4613,-0.0070243,-0.0092191,0.0,0 STARLINK-4764,1 53827U 22114K   22271.91667824 -.00921910  00000-0 -70243-2 0  9994,2 53827  53.2178 209.9382 0001437  30.3648  77.4613 15.74156431  2136,6725.17,91.478,348.001,346.0680000000001,0.0
53827.0,STARLINK-4764,PAYLOAD,2022-09-29 06:00:00,15.72663455,0.0001553,53.2173,208.2876,29.4792,168.4378,0.00533,0.00805159,0.0,0 STARLINK-4764,1 53827U 22114K   22272.25001157  .00805159  00000-0  53300-2 0  9992,2 53827  53.2173 208.2876 0001553  29.4792 168.4378 15.72663455  2180,6729.425,91.564,352.335,350.245,0.0
53827.0,STARLINK-4764,PAYLOAD,2022-09-29 14:00:01,15.73205105,0.0001483,53.2175,206.6374,41.2817,245.2314,-1.2646e-05,-2.395e-05,0.0,0 STARLINK-4764,1 53827U 22114K   22272.58334491 -.00002395  00000-0 -12646-4 0  9991,2 53827  53.2175 206.6374 0001483  41.2817 245.2314 15.73205105  2234,6727.880999999999,91.533,350.74300000000005,348.74800000000016,0.0
53827.0,STARLINK-4764,PAYLOAD,2022-09-29 22:00:00,15.73145993,0.0001493,53.215,204.9829,37.5643,338.1294,0.0002433,0.00033583,0.0,0 STARLINK-4764,1 53827U 22114K   22272.91667824  .00033583  00000-0  24330-3 0  9990,2 53827  53.2150 204.9829 0001493  37.5643 338.1294 15.73145993  1303,6728.049,91.536,350.9190000000001,348.91,0.0
53827.0,STARLINK-4764,PAYLOAD,2022-09-30 06:00:02,15.73173675,0.0001706,53.2149,203.3352,34.7564,69.8863,0.00042129,0.00058855,0.0,0 STARLINK-4764,1 53827U 22114K   22273.25002315  .00058855  00000-0  42129-3 0  9991,2 53827  53.2149 203.3352 0001706  34.7564  69.8863 15.73173675  2346,6727.97,91.535,350.983,348.68699999999984,0.0
53827.0,STARLINK-4764,PAYLOAD,2022-09-30 14:00:01,15.7316315,0.00016,53.2152,201.6837,40.8371,152.6746,0.00047904,0.00067043,0.0,0 STARLINK-4764,1 53827U 22114K   22273.58334491  .00067043  00000-0  47904-3 0  9995,2 53827  53.2152 201.6837 0001600  40.8371 152.6746 15.73163150  1309,6728.0,91.535,350.94199999999995,348.789,0.0
53827.0,STARLINK-4764,PAYLOAD,2022-09-30 16:00:00,15.73146652,0.000159,53.215,201.2709,44.2127,261.5315,0.00089172,0.00126134,0.0,0 STARLINK-4764,1 53827U 22114K   22273.66667824  .00126134  00000-0  89172-3 0  9993,2 53827  53.2150 201.2709 0001590  44.2127 261.5315 15.73146652  2408,6728.047,91.536,350.982,348.843,0.0
53827.0,STARLINK-4764,PAYLOAD,2022-09-30 22:00:00,15.73269077,0.0001601,53.2152,200.0345,45.1982,237.2167,-0.00039426,-0.00055752,0.0,0 STARLINK-4764,1 53827U 22114K   22273.91667824 -.00055752  00000-0 -39426-3 0  9997,2 53827  53.2152 200.0345 0001601  45.1982 237.2167 15.73269077  1305,6727.698,91.529,350.64,348.486,0.0
53827.0,STARLINK-4764,PAYLOAD,2022-10-01 06:00:00,15.73192336,0.0001768,53.2147,198.3865,38.8433,332.5661,9.2448e-05,0.00012369,0.0,0 STARLINK-4764,1 53827U 22114K   22274.25001157  .00012369  00000-0  92448-4 0  9995,2 53827  53.2147 198.3865 0001768  38.8433 332.5661 15.73192336  2491,6727.917,91.534,350.972,348.593,0.0
53827.0,STARLINK-4764,PAYLOAD,2022-10-01 14:00:01,15.73199096,0.0001506999999999,53.2145,196.735,45.1068,55.2245,-0.00032128,-0.00045466,0.0,0 STARLINK-4764,1 53827U 22114K   22274.58334491 -.00045466  00000-0 -32128-3 0  9995,2 53827  53.2145 196.7350 0001507  45.1068  55.2245 15.73199096  1302,6727.898,91.533,350.777,348.749,0.0
53827.0,STARLINK-4764,PAYLOAD,2022-10-01 22:00:00,15.73150001,0.0001530999999999,53.2146,195.0861,46.19,143.04399999999995,-0.00010856,-0.00015795,0.0,0 STARLINK-4764,1 53827U 22114K   22274.91667824 -.00015795  00000-0 -10856-3 0  9997,2 53827  53.2146 195.0861 0001531  46.1900 143.0440 15.73150001  1301,6728.038000000001,91.536,350.93300000000005,348.87300000000016,0.0
53827.0,STARLINK-4764,PAYLOAD,2022-10-02 14:00:01,15.73116607,0.0001337,53.2148,191.7865,43.7152,323.2481,0.00075908,0.00106893,0.0,0 STARLINK-4764,1 53827U 22114K   22275.58334491  .00106893  00000-0  75908-3 0  9999,2 53827  53.2148 191.7865 0001337  43.7152 323.2481 15.73116607  1307,6728.1330000000025,91.538,350.897,349.098,0.0
53827.0,STARLINK-4764,PAYLOAD,2022-10-02 22:00:00,15.73214321,0.0001435,53.2149,190.1378,45.4617,50.3727,0.00037172,0.00051904,0.0,0 STARLINK-4764,1 53827U 22114K   22275.91667824  .00051904  00000-0  37172-3 0  9998,2 53827  53.2149 190.1378 0001435  45.4617  50.3727 15.73214321  1307,6727.854,91.532,350.685,348.754,0.0
53827.0,STARLINK-4764,PAYLOAD,2022-10-03 14:00:01,15.7325199,0.0001353,53.2146,186.8377,48.8348,225.0009,1.1245e-05,9.61e-06,0.0,0 STARLINK-4764,1 53827U 22114K   22276.58334491  .00000961  00000-0  11245-4 0  9994,2 53827  53.2146 186.8377 0001353  48.8348 225.0009 15.73251990  1309,6727.746999999999,91.53,350.522,348.702,0.0
53827.0,STARLINK-4764,PAYLOAD,2022-10-03 22:00:00,15.73285905,0.0001338,53.2147,185.1891,48.2296,314.5896,-0.00064799,-0.00090918,0.0,0 STARLINK-4764,1 53827U 22114K   22276.91667824 -.00090918  00000-0 -64799-3 0  9994,2 53827  53.2147 185.1891 0001338  48.2296 314.5896 15.73285905  1303,6727.65,91.528,350.415,348.615,0.0
